0 YAOGAN 1
1 29092U 06015A   13282.83846039  .00000401  00000-0  58155-4 0  5417
2 29092 097.9648 274.5575 0001464 109.8362 293.8485 14.81347435402922
0 YAOGAN 1
1 29092U 06015A   13284.12462303  .00000500  00000-0  70774-4 0  5421
2 29092 097.9647 275.8359 0001527 109.3137 309.1055 14.81348983403115
0 YAOGAN 1
1 29092U 06015A   13285.48592981  .00000392  00000-0  56937-4 0  5432
2 29092 097.9647 277.1889 0001557 109.0016 004.6524 14.81350596403317
0 YAOGAN 1
1 29092U 06015A   13286.49905473  .00000444  00000-0  63660-4 0  5448
2 29092 097.9647 278.1958 0001545 108.8699 004.3527 14.81351309403465
0 YAOGAN 1
1 29092U 06015A   13287.51210366  .00000520  00000-0  73338-4 0  5451
2 29092 097.9648 279.2025 0001521 109.3500 003.0358 14.81352626403612
0 YAOGAN 1
1 29092U 06015A   13288.79339977  .00000652  00000-0  90180-4 0  5463
2 29092 097.9650 280.4759 0001488 109.2130 352.0008 14.81355354403804
0 YAOGAN 1
1 29092U 06015A   13289.80631789  .00000594  00000-0  82737-4 0  5477
2 29092 097.9651 281.4825 0001468 109.4024 350.2913 14.81357434403954
0 YAOGAN 1
1 29092U 06015A   13291.07886712  .00000558  00000-0  78253-4 0  5486
2 29092 097.9654 282.7472 0001520 108.8249 293.0993 14.81358457404140
0 YAOGAN 1
1 29092U 06015A   13292.16310264  .00000642  00000-0  88883-4 0  5496
2 29092 097.9656 283.8247 0001559 108.4554 312.0612 14.81359316404304
0 YAOGAN 1
1 29092U 06015A   13293.46517986  .00000670  00000-0  92504-4 0  5508
2 29092 097.9658 285.1187 0001576 108.0220 052.1066 14.81361597404498
0 YAOGAN 1
1 29092U 06015A   13294.47857024  .00000642  00000-0  88989-4 0  5512
2 29092 097.9659 286.1260 0001593 107.4521 053.6964 14.81363541404649
0 YAOGAN 1
1 29092U 06015A   13295.87900339  .00000745  00000-0  10211-3 0  5522
2 29092 097.9658 287.5180 0001535 108.6212 316.3673 14.81365141404857
